YAM-3                   
1 48915U 21059AN  25192.40353146  .00005784  00000+0  15425-3 0  9992
2 48915  97.6857 354.9302 0007541 134.3065 225.8799 15.38550157224422
FARADAY_PHOENIX         
1 48924U 21059AX  25192.44701318  .00010428  00000+0  22732-3 0  9994
2 48924  97.6868 359.6395 0009879 124.2439 235.9745 15.44408337224687
DEMO8 (TENZING)         
1 48951U 21059CA  25192.45230330  .00007632  00000+0  18702-3 0  9991
2 48951  97.6942 358.8904 0010167 140.1652 220.0342 15.41000502224602
ASTROCAST-0201          
1 48954U 21059CD  25192.39603516  .00022037  00000+0  30547-3 0  9994
2 48954  97.6553   3.1830 0005461 141.1245 219.0403 15.57075676225047
ASTROCAST-0203          
1 48955U 21059CE  25192.41945132  .00019015  00000+0  26653-3 0  9996
2 48955  97.6555   2.7348 0004766 122.4576 237.7139 15.56810680225049
ASTROCAST-0205          
1 48960U 21059CK  25192.43526483  .00021979  00000+0  30163-3 0  9991
2 48960  97.6521   3.0192 0008150  98.7743 261.4435 15.57325067225056
NAPA-2                  
1 48963U 21059CN  25192.77245786  .00014435  00000+0  28128-3 0  9992
2 48963  97.6802 356.8545 0007272 126.8217 233.3700 15.47629358224607
W-CUBE                  
1 48965U 21059CQ  25192.46647526  .00073554  00000+0  47874-3 0  9994
2 48965  97.6670   6.9955 0003265 112.2532 247.9079 15.75710238225180
JILIN-1 GAOFEN 3D01     
1 49004U 21061B   25192.80902248  .00042005  00000+0  59754-3 0  9992
2 49004  97.3458 267.2124 0009765 106.6491 253.5837 15.56203379223633
JILIN-1 GAOFEN 3D03     
1 49006U 21061D   25192.84547642  .00018791  00000+0  41712-3 0  9991
2 49006  97.3415 258.6222 0005159 235.2038 124.8725 15.43747097223081
XINGSHIDAI 10           
1 49007U 21061E   25192.81414234  .00018226  00000+0  41003-3 0  9995
2 49007  97.3408 258.5697 0005032 218.5291 141.5598 15.43355278223073
FENGYUN 3E              
1 49008U 21062A   25192.84084515 -.00000006  00000+0  17797-4 0  9997
2 49008  98.7422 195.1773 0001861  29.9944 330.1339 14.19869482208285
ISS (NAUKA)             
1 49044U 21066A   25192.43608069  .00006811  00000+0  12510-3 0  9998
2 49044  51.6334 186.8773 0002661 359.1474   0.9510 15.50482195224725
LEDSAT                  
1 49069U 21073D   25192.77118805  .00062494  00000+0  64173-3 0  9995
2 49069  97.3878 275.7479 0006965 308.5199  51.5435 15.64700648216467
STARLINK-3100           
1 49144U 21082Q   25192.36415285 -.00000740  00000+0 -54266-4 0  9997
2 49144  69.9996 182.9099 0003096 264.9862  95.0944 14.98330651209838
CUTE                    
1 49263U 21088D   25192.17289252  .00025414  00000+0  48690-3 0  9993
2 49263  97.4502 269.3654 0009359 123.8907 236.3234 15.47971452209317
2021-091B               
1 49316U 21091B   25192.84113264  .00001991  00000+0  10180-3 0  9996
2 49316  97.4502  20.6677 0013598 105.3209 254.9529 15.17742237207347
SDGSAT 1                
1 49387U 21100A   25192.84126919  .00002093  00000+0  10031-3 0  9995
2 49387  97.3129 246.5233 0008375  72.8192 287.3960 15.19958721204235
TEIKYOSAT-4 (OORURI)    
1 49396U 21102B   25192.54058548  .00001030  00000+0  71279-4 0  9998
2 49396  97.4083 229.8141 0013272  30.9742 329.2267 15.07749034201364
Z-SAT                   
1 49399U 21102E   25192.86047305  .00002791  00000+0  15400-3 0  9993
2 49399  97.3779 233.4196 0017670 357.9265   2.1891 15.14629977201863
HIBARI                  
1 49400U 21102F   25192.56957016  .00005140  00000+0  21868-3 0  9998
2 49400  97.3742 238.3764 0012844 333.0494  27.0074 15.23377589202193
KOSEN-1                 
1 49402U 21102H   25192.58912353  .00003907  00000+0  18076-3 0  9993
2 49402  97.3684 236.8158 0014631 332.5518  27.4943 15.20633552202154
GLOBAL-14               
1 49469U 21106A   25192.27052017  .00005416  00000+0  16304-3 0  9997
2 49469  42.0070 131.0725 0005321 213.1708 146.8797 15.35074982205495
GAOFEN-3 02             
1 49495U 21109A   25192.81893113  .00000004  00000+0  14513-4 0  9998
2 49495  98.4110 200.6996 0001345 315.1171  44.9910 14.42212122191256
GLOBAL-12               
1 49772U 21115BA  25192.45210354  .00006676  00000+0  18444-3 0  9990
2 49772  53.1973 219.9424 0000788 332.0519  28.0444 15.38288892203254
GLOBAL-13               
1 49773U 21115BB  25192.48820689  .00008544  00000+0  23324-3 0  9991
2 49773  53.1987 221.0454 0001091  75.6993 284.4133 15.38274108203248
GLOBAL-17               
1 49949U 21120A   25192.51562976  .00006005  00000+0  17950-3 0  9996
2 49949  41.9976 251.4549 0004630 321.3287  38.7219 15.35151644202269
GLOBAL-16               
1 49950U 21120B   25192.55495868  .00008040  00000+0  24235-3 0  9992
2 49950  41.9982 250.8700 0006525 312.6691  47.3596 15.34531774202266
XW-3 (CAS-9)            
1 50466U 21131B   25192.84426199  .00000297  00000+0  10643-3 0  9995
2 50466  98.5109 282.0401 0004972  52.3566 307.8073 14.40844115186095
ION SCV-004             
1 50993U 22002K   25192.56592173  .00003114  00000+0  12394-3 0  9999
2 50993  97.3346 251.6212 0009754 118.6894 241.5326 15.25959681193277
ETV-A1                  
1 51060U 22002CE  25192.84056566  .00005713  00000+0  18649-3 0  9993
2 51060  97.3369 256.2618 0007862 121.2377 238.9636 15.32134553193582
BRO-5                   
1 51061U 22002CF  25192.79716818  .00005785  00000+0  16395-3 0  9996
2 51061  97.3443 260.6297 0007984 115.1402 245.0671 15.36618681193822
VZLUSAT-2               
1 51085U 22002DF  25192.83985200  .00037159  00000+0  46646-3 0  9992
2 51085  97.3313 266.6917 0006042  90.5535 269.6414 15.59614760194306
L-SAR 01A               
1 51284U 22007A   25192.87857697  .00000437  00000+0  53004-4 0  9996
2 51284  97.8106 200.1766 0001602  90.4145 269.7256 14.88406080187852
INSPIRESAT 1            
1 51657U 22013B   25192.80559168  .00019786  00000+0  39614-3 0  9999
2 51657  97.4864 223.4186 0005656 194.4947 165.6141 15.46776552189369
L-SAR 01B               
1 51822U 22018A   25192.84493386  .00000457  00000+0  55159-4 0  9999
2 51822  97.8121 200.1310 0001731  92.7722 267.3693 14.88406519183088
2022-019D               
1 51827U 22019D   25192.82308046  .00013062  00000+0  31979-3 0  9990
2 51827  97.3944 270.6106 0007641 293.4711  66.5732 15.40868818186876
JILIN-1 GAOFEN 03D14    
1 51831U 22019H   25192.82908547  .00017981  00000+0  41187-3 0  9993
2 51831  97.3970 273.0907 0007823 277.2416  82.7942 15.42802000187035
2022-019J               
1 51832U 22019J   25192.80595105  .00001652  00000+0  83559-4 0  9992
2 51832  97.3883 258.9384 0008426 349.9904  10.1161 15.18396895186118
JILIN-1 GAOFEN 03D16    
1 51834U 22019L   25192.85420083  .00018704  00000+0  41205-3 0  9998
2 51834  97.3946 273.5860 0005120 277.8734  82.1933 15.43974370187070
JILIN-1 GAOFEN 03D11    
1 51835U 22019M   25192.84885617  .00017425  00000+0  40284-3 0  9991
2 51835  97.3980 273.3049 0004139 302.8796  57.2053 15.42553986187040
JILIN-1 GAOFEN 03D17    
1 51838U 22019Q   25192.83528457  .00161922  00000+0  80307-3 0  9991
2 51838  97.3946 282.9773 0004905 228.7748 131.3098 15.81535965187682
JILIN-1 GAOFEN 03D15    
1 51839U 22019R   25192.80732929  .00015714  00000+0  38297-3 0  9998
2 51839  97.3953 272.5571 0003428 334.0709  26.0366 15.40987424187010
JILIN-1 GAOFEN 03D10    
1 51840U 22019S   25192.86125816  .00017964  00000+0  41510-3 0  9998
2 51840  97.3959 273.4057 0001913 158.1271 202.0058 15.42568208187058
JILIN-1 GAOFEN 03D12    
1 51841U 22019T   25192.82677549  .00016381  00000+0  39886-3 0  9995
2 51841  97.3939 272.5010 0002627 246.7000 113.3970 15.41006605187013
JILIN-1 GAOFEN 03D18    
1 51844U 22019W   25192.80882438  .00016951  00000+0  39294-3 0  9997
2 51844  97.3933 272.5731 0008321 275.8644  84.1654 15.42452223186929
2022-023F               
1 51951U 22023F   25192.81262630  .00010461  21134-7  44504-3 0  9997
2 51951  63.4874 350.2378 0100102 337.5865  22.0888 15.18185200159165
CZ-4C R/B               
1 52085U 22027B   25192.54568777 -.00000056  00000+0  41537-4 0  9996
2 52085  63.3943 245.6095 0202088  24.0867 336.9460 13.65447271165528
MERIDIAN 10             
1 52145U 22030A   25192.00619788  .00000263  00000+0  00000+0 0  9991
2 52145  62.6613 176.7309 6743036 273.3545  17.7885  2.00600904 24175
OMNI-L1                 
1 52157U 22033A   25192.51195754  .00001125  00000+0  15260-3 0  9991
2 52157  97.8689 273.2326 0004458 326.5004  33.5926 14.80794164177002
ENMAP                   
1 52159U 22033C   25192.54478421  .00000246  00000+0  44051-4 0  9995
2 52159  97.9790 274.6876 0001402  95.0053 265.1316 14.75002728176446
ARCSAT-1                
1 52161U 22033E   25192.16846398  .00004803  00000+0  10697-3 0  9999
2 52161  97.2938 276.6182 0005802  15.4744 344.6681 15.44086142182926
GLOBAL-18               
1 52196U 22034B   25192.38768101  .00010575  00000+0  27552-3 0  9998
2 52196  52.9859  71.8644 0006960  52.1705 307.9926 15.39432342184425
GAOFEN-3 03             
1 52200U 22035A   25192.86115656 -.00000005  00000+0  11624-4 0  9991
2 52200  98.4093 201.3104 0001607 101.3771 258.7599 14.42210806171809
DAQI 1                  
1 52257U 22039A   25192.81417000  .00000171  00000+0  47392-4 0  9994
2 52257  98.2459 132.1400 0002313 210.1618 149.9448 14.57780473172352
JILIN-1 GAOFEN 4A       
1 52388U 22046A   25192.84206556  .00035801  00000+0  59736-3 0  9994
2 52388  97.4887 291.9573 0007431 147.7820 212.3887 15.51857358177511
JILIN-1 GAOFEN 3D05     
1 52390U 22046C   25192.82949160  .00019032  00000+0  44570-3 0  9998
2 52390  97.4871 290.9965 0001389  98.2980 261.8424 15.42157450177493
JILIN-1 GAOFEN 3D07     
1 52392U 22046E   25192.81646115  .00027802  00000+0  51622-3 0  9993
2 52392  97.4964 294.3764 0000529 112.7054 247.4252 15.48903082177644
BRO-6                   
1 52422U 22047AE  25192.78200733  .00006889  00000+0  19632-3 0  9993
2 52422  97.3649 276.0871 0004790 202.0755 158.0284 15.36393243178684
